   2480.0000     40237.19047589  -11516.47128401   -2818.80067086   0.841890847266   2.968254576554  -0.020089571866
   2500.0000     41089.75547299   -7914.48821040   -2831.95450065   0.578136441391   3.031270790446  -0.001763924067
   2520.0000     41622.84068029   -4250.97107533   -2823.09194371   0.309761763933   3.070742706668   0.016584505040
   2540.0000     41832.15664659    -554.38929432   -2792.27156553   0.038863427405   3.086340291143   0.034812123716
   2560.0000     41715.94565172    3146.50472382   -2739.72391523  -0.232438400838   3.077922334111   0.052776052906
   2580.0000     41274.99969412    6822.90324700   -2665.84997512  -0.502017191074   3.045538194901   0.070335292040
   2600.0000     40512.65763906   10446.17262276   -2571.21820175  -0.767757441368   2.989427913096   0.087351878292
   2620.0000     39434.78169110   13988.08060195   -2456.56021550  -1.027571966950   2.910020687235   0.103692019427
   2640.0000     38049.71300622   17421.02207798   -2322.76512031  -1.279419104407   2.807931700260   0.119227201041
   2660.0000     36368.20700997   20718.23931705   -2170.87253867  -1.521319521221   2.683957330002   0.133835248028
   2680.0000     34403.34850478   23854.03614815   -2002.06437372  -1.751372569673   2.539068751441   0.147401336311
   2700.0000     32170.44814849   26803.98247040   -1817.65544781  -1.967771896377   2.374404051958   0.159818937064
   2720.0000     29686.92006285   29545.10949954   -1619.08299627  -2.168820317999   2.191258850205   0.170990694022
   2740.0000     26972.14245948   32056.09238691   -1407.89518274  -2.352943697642   1.991075569729   0.180829218010
   2760.0000     24047.30229594   34317.41923716   -1185.73871520  -2.518703734399   1.775431457138   0.189257793962
   2780.0000     20935.22479141   36311.54540900    -954.34563134  -2.664809571128   1.546025423748   0.196210995048
   2800.0000     17660.19080649   38023.03069239    -715.51948239  -2.790128034363   1.304663952028   0.201635194430
   2820.0000     14247.74175215   39438.65975506    -471.12088838  -2.893692529229   1.053246063322   0.205488976139
   2840.0000     10724.47533075   40547.54371443    -223.05271058  -2.974710430234   0.793747612165   0.207743437656
   2860.0000      7117.83261933   41341.20274123      26.75512384  -3.032568963028   0.528204966602   0.208382384607
   2880.0000      3455.88022937   41813.62850079     276.36088173  -3.066839495640   0.258698370585   0.207402415700
# Looking for sat 25954
# Satellite ID = 25954
# Epoch year = 2004 day = 39.68057285
# Eccentricity = 0.0001765
# Equatorial inclination = 0.0004 deg
# Argument of perigee = 15.5294 deg
# Mean anomaly = 22.7134 deg
# Right Ascension of Ascending Node = 243.8136 deg
# Mean Motion (number of rev/day) = 1.00271289
# BSTAR drag = 0.0000e+00
# Orbit number = 1561
# SDP4 synchronous
# Satellite number
25954
#     Tsince         X                Y                Z            Xdot             Ydot             Zdot
  -1440.0000      8118.18519220  -41368.40537378       4.11046687   3.017696740517   0.591994296582   0.000933015822
  -1420.0000     11703.65653488  -40500.57536466       5.20366527   2.954383868048   0.853491827249   0.000903645436
  -1400.0000     15199.52669006  -39322.67973220       6.25798009   2.868454281134   1.108449845028   0.000867469489
  -1380.0000     18579.03437688  -37843.74304738       7.26545904   2.760567139753   1.354915887594   0.000824759232
  -1360.0000     21816.31115172  -36075.09493379       8.21850181   2.631549846354   1.591002801374   0.000775835316
  -1340.0000     24886.57892231  -34030.28328383       9.10991735   2.482391680010   1.814903168290   0.000721065363
  -1320.0000     27766.34018431  -31724.96997841       9.93297847   2.314236151136   2.024903194934   0.000660861183
  -1300.0000     30433.55772424  -29176.81072851      10.68147263   2.128372196077   2.219395826224   0.000595675656
  -1280.0000     32867.82362028  -26405.31916642      11.34974905   1.926224222170   2.396893070953   0.000525999292
  -1260.0000     35050.51480974  -23431.71758537      11.93276132   1.709341179587   2.556037340042   0.000452356528
  -1240.0000     36964.93582223  -20278.77377588      12.42610563   1.479384621039   2.695611841344   0.000375301749
  -1220.0000     38596.44623117  -16970.62648165      12.82605402   1.238115934618   2.814549852971   0.000295415097
  -1200.0000     39932.57236649  -13532.60044359      13.12958252   0.987382821592   2.911942842436   0.000213298080
  -1180.0000     40963.10259745   -9991.01184056      13.33439406   0.729105079176   2.987047382032   0.000129569013
  -1160.0000     41680.16482049   -6372.96736272      13.43893569   0.465259925158   3.039290761951   0.000044858365
  -1140.0000     42078.28646625   -2706.15615841      13.44241034   0.197866809727   3.068275325149  -0.000040196018
  -1120.0000     42154.43588569     981.36190638      13.34478278  -0.071028034198   3.073781442104  -0.000124953722
  -1100.0000     41908.04509445    4661.37147794      13.14677987  -0.339367287438   3.055769125258  -0.000208776603
  -1080.0000     41341.01365441    8305.71681955      12.84988501  -0.605098224192   3.014378268382  -0.000291033590
  -1060.0000     40457.69372740   11886.51761812      12.45632693  -0.866188435347   2.949927514712  -0.000371105442
  -1040.0000     39264.85636325   15376.38199289      11.96906281  -1.120641340672   2.862911759727  -0.000448389416
  -1020.0000     37771.63938438   18748.61571275      11.39175600  -1.366511418096   2.753998316105  -0.000522303794
  -1000.0000     35989.47694857   21977.42657562      10.72874823  -1.601919074572   2.624021747919  -0.000592292273
   -980.0000     33932.01211346   25038.12071233       9.98502703  -1.825064923467   2.473977471449  -0.000657828126
   -960.0000     31614.99207832   27907.29158442       9.16618796  -2.034243525705   2.305014099668  -0.000718418177
   -940.0000     29056.14772541   30562.99845146       8.27839253  -2.227856360802   2.118424649204  -0.000773606492
   -920.0000     26275.05757501   32984.93416127       7.32832163  -2.404424018408   1.915636618354  -0.000822977814
   -900.0000     23292.99854608   35154.57956189       6.32312531  -2.562597414742   1.698201110636  -0.000866160666
   -880.0000     20132.78294808   37055.34514697       5.27036888  -2.701168079827   1.467780961760  -0.000902830146
   -860.0000     16818.58421325   38672.69751025       4.17797589  -2.819077340036   1.226138052607  -0.000932710358
   -840.0000     13375.75231497   39994.27016343       3.05416856  -2.915424364623   0.975119876513  -0.000955576487
   -820.0000      9830.61965788   41009.95803300       1.90740565  -2.989473027364   0.716645417335  -0.000971256480
   -800.0000      6210.30065499   41711.99428303       0.74631907  -3.040657485574   0.452690571718  -0.000979632340
   -780.0000      2542.48420631   42095.00976899      -0.42035130  -3.068586499402   0.185273057194  -0.000980641007
   -760.0000     -1144.77750129   42156.07398672      -1.58382329  -3.073046409097  -0.083562945807  -0.000974274841
   -740.0000     -4823.28369668   41894.71748232      -2.73533874  -3.054002768011  -0.351762406472  -0.000960581673
   -720.0000     -8464.89963310   41312.93549892      -3.86622919  -3.011600615036  -0.617275049740  -0.000939664455
   -700.0000    -12041.77194530   40415.17287148      -4.96798131  -2.946163387083  -0.878071018811  -0.000911680492
   -680.0000    -15526.54126793   39208.29022272      -6.03230095  -2.858190475065  -1.132156341001  -0.000876840262
   -660.0000    -18892.55112977   37701.51180203      -7.05117557  -2.748353447655  -1.377588126289  -0.000835405850
   -640.0000    -22114.05208155   35906.35502744      -8.01693478  -2.617490946381  -1.612489423566  -0.000787688977
   -620.0000    -25166.39782312   33836.54304158      -8.92230784  -2.466602346631  -1.835063499676  -0.000734048675
   -600.0000    -28026.23409238   31507.89992920      -9.76047869  -2.296840157733  -2.043607597496  -0.000674888593
   -580.0000    -30671.67708772   28938.23020781     -10.52513724  -2.109501278375  -2.236525938182  -0.000610653976
   -560.0000    -33082.48126385   26147.18268469     -11.21052702  -1.906017112857  -2.412341956137  -0.000541828315
   -540.0000    -35240.19379147   23156.10106477     -11.81148853  -1.687942720681  -2.569709569180  -0.000468929731
   -520.0000    -37128.29626964   19987.86071683     -12.32349829  -1.456944954985  -2.707423526625  -0.000392507080
   -500.0000    -38732.33125350   16666.69410609     -12.74270291  -1.214789771403  -2.824428657135  -0.000313135826
   -480.0000    -40040.01313071   13218.00583328     -13.06594832  -0.963328774741  -2.919827981654  -0.000231413719
   -460.0000    -41041.32263968    9668.17806600     -13.29080357  -0.704485059713  -2.992889639053  -0.000147956288
   -440.0000    -41728.58366398    6044.36958494     -13.41557928  -0.440238579840  -3.043052523860  -0.000063392219
   -420.0000    -42096.52257986    2374.30766450     -13.43934045  -0.172610986908  -3.069930655157   0.000021641390
   -400.0000    -42142.30901100   -1313.92377725     -13.36191365   0.096349809031  -3.073316191795   0.000106503826
   -380.0000    -41865.57793587   -4992.09956839     -13.18388837   0.364585345451  -3.053181088655   0.000190555611
   -360.0000    -41268.43291976   -8632.06859693     -12.90661266   0.630042315313  -3.009677375944   0.000273163310
   -340.0000    -40355.43046376  -12205.96987056     -12.53218309   0.890688336904  -2.943136059662   0.000353704325
   -320.0000    -39133.54552728  -15686.44581115     -12.06342890   1.144527529095  -2.854064646082   0.000431571606
   -300.0000    -37612.11856249  -19046.85177589     -11.50389084   1.389615817847  -2.743143313724   0.000506178232
   -280.0000    -35802.78412280  -22261.46073626     -10.85779431   1.624075895182  -2.611219736307   0.000576961869
   -260.0000    -33719.38237169  -25305.65986032     -10.13001766   1.846111592258  -2.459302652515   0.000643389010
